STARLINK-2498
1 18326C 21036BC  21326.17850266  .00003296  00000-0  22086-3 0  3269
2 18326  53.0543 302.9277 0002138  45.1609 258.2683 15.06385265    10
